[
  {
    "OBJECT_NAME": "STARLINK-30981",
    "OBJECT_ID": "23186X",
    "EPOCH": "2025-11-11T01:53:11.281056",
    "MEAN_MOTION": 15.02533525,
    "ECCENTRICITY": 0.0001016,
    "INCLINATION": 43.0043,
    "RA_OF_ASC_NODE": 351.5738,
    "ARG_OF_PERICENTER": 282.8374,
    "MEAN_ANOMALY": 77.2355,
    "EPHEMERIS_TYPE": 0,
    "CLASSIFICATION_TYPE": "U",
    "NORAD_CAT_ID": 58494,
    "ELEMENT_SET_NO": 999,
    "REV_AT_EPOCH": 10800,
    "BSTAR": 6.785e-05,
    "MEAN_MOTION_DOT": 7.13e-06,
    "MEAN_MOTION_DDOT": 0.0,
    "TLE_LINE1": "1 58494U 23186X   25315.07860279  .00000713  00000+0  67850-4 0  9995",
    "TLE_LINE2": "2 58494  43.0043 351.5738 0001016 282.8374  77.2355 15.02533525108009",
    "COMMENT": "Grouped by shell and plane from TLE"
  },
  {
    "OBJECT_NAME": "STARLINK-31002",
    "OBJECT_ID": "23186Y",
    "EPOCH": "2025-11-11T03:24:06.780096",
    "MEAN_MOTION": 15.02544157,
    "ECCENTRICITY": 0.0001295,
    "INCLINATION": 43.0038,
    "RA_OF_ASC_NODE": 351.19,
    "ARG_OF_PERICENTER": 273.9615,
    "MEAN_ANOMALY": 86.1079,
    "EPHEMERIS_TYPE": 0,
    "CLASSIFICATION_TYPE": "U",
    "NORAD_CAT_ID": 58495,
    "ELEMENT_SET_NO": 999,
    "REV_AT_EPOCH": 10818,
    "BSTAR": 0.00014228,
    "MEAN_MOTION_DOT": 1.719e-05,
    "MEAN_MOTION_DDOT": 0.0,
    "TLE_LINE1": "1 58495U 23186Y   25315.14174514  .00001719  00000+0  14228-3 0  9991",
    "TLE_LINE2": "2 58495  43.0038 351.1900 0001295 273.9615  86.1079 15.02544157108183",
    "COMMENT": "Grouped by shell and plane from TLE"
  },
  {
    "OBJECT_NAME": "STARLINK-35328",
    "OBJECT_ID": "25211A",
    "EPOCH": "2025-11-11T08:00:03.000384",
    "MEAN_MOTION": 15.05665459,
    "ECCENTRICITY": 0.0001134,
    "INCLINATION": 97.6036,
    "RA_OF_ASC_NODE": 357.3423,
    "ARG_OF_PERICENTER": 95.2848,
    "MEAN_ANOMALY": 105.9206,
    "EPHEMERIS_TYPE": 0,
    "CLASSIFICATION_TYPE": "U",
    "NORAD_CAT_ID": 65652,
    "ELEMENT_SET_NO": 999,
    "REV_AT_EPOCH": 594,
    "BSTAR": 0.0,
    "MEAN_MOTION_DOT": -0.00031009,
    "MEAN_MOTION_DDOT": 0.0,
    "TLE_LINE1": "1 65652U 25211A   25315.33336806 -.00031009  00000+0 -21533-2 0  9993",
    "TLE_LINE2": "2 65652  97.6036 357.3423 0001134  95.2848 105.9206 15.05665459  5946",
    "COMMENT": "Grouped by shell and plane from TLE"
  },
  {
    "OBJECT_NAME": "STARLINK-34210",
    "OBJECT_ID": "25211B",
    "EPOCH": "2025-11-11T02:11:33.312192",
    "MEAN_MOTION": 15.05670655,
    "ECCENTRICITY": 0.0002025,
    "INCLINATION": 97.6032,
    "RA_OF_ASC_NODE": 357.1159,
    "ARG_OF_PERICENTER": 81.2922,
    "MEAN_ANOMALY": 278.8534,
    "EPHEMERIS_TYPE": 0,
    "CLASSIFICATION_TYPE": "U",
    "NORAD_CAT_ID": 65653,
    "ELEMENT_SET_NO": 999,
    "REV_AT_EPOCH": 919,
    "BSTAR": 0.0013353000000000002,
    "MEAN_MOTION_DOT": 0.0001927,
    "MEAN_MOTION_DDOT": 0.0,
    "TLE_LINE1": "1 65653U 25211B   25315.09135778  .00019270  00000+0  13353-2 0  9997",
    "TLE_LINE2": "2 65653  97.6032 357.1159 0002025  81.2922 278.8534 15.05670655  9194",
    "COMMENT": "Grouped by shell and plane from TLE"
  },
  {
    "OBJECT_NAME": "STARLINK-35227",
    "OBJECT_ID": "25211C",
    "EPOCH": "2025-11-11T02:03:32.941152",
    "MEAN_MOTION": 15.05659512,
    "ECCENTRICITY": 0.0001244,
    "INCLINATION": 97.6043,
    "RA_OF_ASC_NODE": 357.1248,
    "ARG_OF_PERICENTER": 86.4484,
    "MEAN_ANOMALY": 273.6885,
    "EPHEMERIS_TYPE": 0,
    "CLASSIFICATION_TYPE": "U",
    "NORAD_CAT_ID": 65654,
    "ELEMENT_SET_NO": 999,
    "REV_AT_EPOCH": 919,
    "BSTAR": 0.00036781000000000004,
    "MEAN_MOTION_DOT": 5.252e-05,
    "MEAN_MOTION_DDOT": 0.0,
    "TLE_LINE1": "1 65654U 25211C   25315.08579793  .00005252  00000+0  36781-3 0  9992",
    "TLE_LINE2": "2 65654  97.6043 357.1248 0001244  86.4484 273.6885 15.05659512  9199",
    "COMMENT": "Grouped by shell and plane from TLE"
  },
  {
    "OBJECT_NAME": "STARLINK-35240",
    "OBJECT_ID": "25211D",
    "EPOCH": "2025-11-11T08:00:03.000384",
    "MEAN_MOTION": 15.05668416,
    "ECCENTRICITY": 8.74e-05,
    "INCLINATION": 97.6036,
    "RA_OF_ASC_NODE": 357.3488,
    "ARG_OF_PERICENTER": 61.1045,
    "MEAN_ANOMALY": 154.9985,
    "EPHEMERIS_TYPE": 0,
    "CLASSIFICATION_TYPE": "U",
    "NORAD_CAT_ID": 65655,
    "ELEMENT_SET_NO": 999,
    "REV_AT_EPOCH": 594,
    "BSTAR": 0.0,
    "MEAN_MOTION_DOT": -0.00026739,
    "MEAN_MOTION_DDOT": 0.0,
    "TLE_LINE1": "1 65655U 25211D   25315.33336806 -.00026739  00000+0 -18550-2 0  9995",
    "TLE_LINE2": "2 65655  97.6036 357.3488 0000874  61.1045 154.9985 15.05668416  5945",
    "COMMENT": "Grouped by shell and plane from TLE"
  },
  {
    "OBJECT_NAME": "STARLINK-35344",
    "OBJECT_ID": "25211E",
    "EPOCH": "2025-11-11T02:07:31.882944",
    "MEAN_MOTION": 15.05655342,
    "ECCENTRICITY": 0.0002191,
    "INCLINATION": 97.6018,
    "RA_OF_ASC_NODE": 357.1191,
    "ARG_OF_PERICENTER": 96.5465,
    "MEAN_ANOMALY": 263.6011,
    "EPHEMERIS_TYPE": 0,
    "CLASSIFICATION_TYPE": "U",
    "NORAD_CAT_ID": 65656,
    "ELEMENT_SET_NO": 999,
    "REV_AT_EPOCH": 919,
    "BSTAR": 0.0012406000000000001,
    "MEAN_MOTION_DOT": 0.00017888,
    "MEAN_MOTION_DDOT": 0.0,
    "TLE_LINE1": "1 65656U 25211E   25315.08856346  .00017888  00000+0  12406-2 0  9991",
    "TLE_LINE2": "2 65656  97.6018 357.1191 0002191  96.5465 263.6011 15.05655342  9190",
    "COMMENT": "Grouped by shell and plane from TLE"
  },
  {
    "OBJECT_NAME": "STARLINK-34540",
    "OBJECT_ID": "25211F",
    "EPOCH": "2025-11-11T01:59:33.633888",
    "MEAN_MOTION": 15.05659751,
    "ECCENTRICITY": 0.000117,
    "INCLINATION": 97.6042,
    "RA_OF_ASC_NODE": 357.1263,
    "ARG_OF_PERICENTER": 112.1021,
    "MEAN_ANOMALY": 248.033,
    "EPHEMERIS_TYPE": 0,
    "CLASSIFICATION_TYPE": "U",
    "NORAD_CAT_ID": 65657,
    "ELEMENT_SET_NO": 999,
    "REV_AT_EPOCH": 919,
    "BSTAR": 0.00043815,
    "MEAN_MOTION_DOT": 6.269e-05,
    "MEAN_MOTION_DDOT": 0.0,
    "TLE_LINE1": "1 65657U 25211F   25315.08302817  .00006269  00000+0  43815-3 0  9991",
    "TLE_LINE2": "2 65657  97.6042 357.1263 0001170 112.1021 248.0330 15.05659751  9196",
    "COMMENT": "Grouped by shell and plane from TLE"
  },
  {
    "OBJECT_NAME": "STARLINK-35282",
    "OBJECT_ID": "25211G",
    "EPOCH": "2025-11-11T01:51:34.780032",
    "MEAN_MOTION": 15.0563313,
    "ECCENTRICITY": 0.0001734,
    "INCLINATION": 97.6058,
    "RA_OF_ASC_NODE": 357.1357,
    "ARG_OF_PERICENTER": 124.8324,
    "MEAN_ANOMALY": 235.3067,
    "EPHEMERIS_TYPE": 0,
    "CLASSIFICATION_TYPE": "U",
    "NORAD_CAT_ID": 65658,
    "ELEMENT_SET_NO": 999,
    "REV_AT_EPOCH": 919,
    "BSTAR": 0.00061279,
    "MEAN_MOTION_DOT": 8.788e-05,
    "MEAN_MOTION_DDOT": 0.0,
    "TLE_LINE1": "1 65658U 25211G   25315.07748588  .00008788  00000+0  61279-3 0  9992",
    "TLE_LINE2": "2 65658  97.6058 357.1357 0001734 124.8324 235.3067 15.05633130  9199",
    "COMMENT": "Grouped by shell and plane from TLE"
  },
  {
    "OBJECT_NAME": "STARLINK-35120",
    "OBJECT_ID": "25211H",
    "EPOCH": "2025-11-11T01:55:34.376736",
    "MEAN_MOTION": 15.05664828,
    "ECCENTRICITY": 8.35e-05,
    "INCLINATION": 97.6047,
    "RA_OF_ASC_NODE": 357.1311,
    "ARG_OF_PERICENTER": 95.5839,
    "MEAN_ANOMALY": 264.5483,
    "EPHEMERIS_TYPE": 0,
    "CLASSIFICATION_TYPE": "U",
    "NORAD_CAT_ID": 65659,
    "ELEMENT_SET_NO": 999,
    "REV_AT_EPOCH": 919,
    "BSTAR": 0.00084301,
    "MEAN_MOTION_DOT": 0.00012129,
    "MEAN_MOTION_DDOT": 0.0,
    "TLE_LINE1": "1 65659U 25211H   25315.08025899  .00012129  00000+0  84301-3 0  9992",
    "TLE_LINE2": "2 65659  97.6047 357.1311 0000835  95.5839 264.5483 15.05664828  9198",
    "COMMENT": "Grouped by shell and plane from TLE"
  },
  {
    "OBJECT_NAME": "STARLINK-35246",
    "OBJECT_ID": "25211J",
    "EPOCH": "2025-11-11T01:47:36.189888",
    "MEAN_MOTION": 15.05662838,
    "ECCENTRICITY": 0.0001734,
    "INCLINATION": 97.6053,
    "RA_OF_ASC_NODE": 357.1392,
    "ARG_OF_PERICENTER": 86.7909,
    "MEAN_ANOMALY": 273.3516,
    "EPHEMERIS_TYPE": 0,
    "CLASSIFICATION_TYPE": "U",
    "NORAD_CAT_ID": 65660,
    "ELEMENT_SET_NO": 999,
    "REV_AT_EPOCH": 919,
    "BSTAR": 0.00080537,
    "MEAN_MOTION_DOT": 0.00011583,
    "MEAN_MOTION_DDOT": 0.0,
    "TLE_LINE1": "1 65660U 25211J   25315.07472442  .00011583  00000+0  80537-3 0  9993",
    "TLE_LINE2": "2 65660  97.6053 357.1392 0001734  86.7909 273.3516 15.05662838  9199",
    "COMMENT": "Grouped by shell and plane from TLE"
  },
  {
    "OBJECT_NAME": "STARLINK-35220",
    "OBJECT_ID": "25211K",
    "EPOCH": "2025-11-11T03:19:18.805440",
    "MEAN_MOTION": 15.05664576,
    "ECCENTRICITY": 0.0001189,
    "INCLINATION": 97.6042,
    "RA_OF_ASC_NODE": 357.2077,
    "ARG_OF_PERICENTER": 87.5952,
    "MEAN_ANOMALY": 272.5411,
    "EPHEMERIS_TYPE": 0,
    "CLASSIFICATION_TYPE": "U",
    "NORAD_CAT_ID": 65661,
    "ELEMENT_SET_NO": 999,
    "REV_AT_EPOCH": 920,
    "BSTAR": 0.00071655,
    "MEAN_MOTION_DOT": 0.00010297,
    "MEAN_MOTION_DDOT": 0.0,
    "TLE_LINE1": "1 65661U 25211K   25315.13841210  .00010297  00000+0  71655-3 0  9996",
    "TLE_LINE2": "2 65661  97.6042 357.2077 0001189  87.5952 272.5411 15.05664576  9208",
    "COMMENT": "Grouped by shell and plane from TLE"
  },
  {
    "OBJECT_NAME": "STARLINK-35176",
    "OBJECT_ID": "25211L",
    "EPOCH": "2025-11-11T03:15:19.391904",
    "MEAN_MOTION": 15.05661189,
    "ECCENTRICITY": 4.76e-05,
    "INCLINATION": 97.6055,
    "RA_OF_ASC_NODE": 357.2131,
    "ARG_OF_PERICENTER": 185.9256,
    "MEAN_ANOMALY": 174.1965,
    "EPHEMERIS_TYPE": 0,
    "CLASSIFICATION_TYPE": "U",
    "NORAD_CAT_ID": 65662,
    "ELEMENT_SET_NO": 999,
    "REV_AT_EPOCH": 920,
    "BSTAR": 0.00053697,
    "MEAN_MOTION_DOT": 7.698e-05,
    "MEAN_MOTION_DDOT": 0.0,
    "TLE_LINE1": "1 65662U 25211L   25315.13564111  .00007698  00000+0  53697-3 0  9996",
    "TLE_LINE2": "2 65662  97.6055 357.2131 0000476 185.9256 174.1965 15.05661189  9200",
    "COMMENT": "Grouped by shell and plane from TLE"
  }
]